{
  "type": "FeatureCollection",
  "features": [
    {
      "type": "Feature",
      "id": "osm:edge:1309809289_0:6325dc90",
      "geometry": {
        "type": "LineString",
        "coordinates": [
          [
            24.928859993432848,
            60.17870859277985
          ],
          [
            24.92888229093786,
            60.17865374697501
          ]
        ]
      },
      "properties": {
        "case_fact": "R1",
        "name": "Mannerheimintie",
        "direction": "geometry order",
        "mapping_status": "candidate",
        "evidence_kind": "assumed_geometry"
      }
    },
    {
      "type": "Feature",
      "id": "osm:edge:1309809289_1:fcb9e515",
      "geometry": {
        "type": "LineString",
        "coordinates": [
          [
            24.928937872386957,
            60.17852850858403
          ],
          [
            24.928946179946763,
            60.17851112354941
          ]
        ]
      },
      "properties": {
        "case_fact": "R1",
        "name": "Mannerheimintie",
        "direction": "geometry order",
        "mapping_status": "candidate",
        "evidence_kind": "assumed_geometry"
      }
    },
    {
      "type": "Feature",
      "id": "osm:edge:1309809289_2:735c39b3",
      "geometry": {
        "type": "LineString",
        "coordinates": [
          [
            24.928947413363886,
            60.178508717690065
          ],
          [
            24.92919948018165,
            60.17802789919392
          ]
        ]
      },
      "properties": {
        "case_fact": "R1",
        "name": "Mannerheimintie",
        "direction": "geometry order",
        "mapping_status": "candidate",
        "evidence_kind": "assumed_geometry"
      }
    },
    {
      "type": "Feature",
      "id": "osm:edge:1309809290:c5cf08ab",
      "geometry": {
        "type": "LineString",
        "coordinates": [
          [
            24.929237394155432,
            60.17795268371342
          ],
          [
            24.92924951136769,
            60.17792776841638
          ]
        ]
      },
      "properties": {
        "case_fact": "R1",
        "name": "Mannerheimintie",
        "direction": "geometry order",
        "mapping_status": "candidate",
        "evidence_kind": "assumed_geometry"
      }
    },
    {
      "type": "Feature",
      "id": "osm:edge:1312033905:8b7701e4",
      "geometry": {
        "type": "LineString",
        "coordinates": [
          [
            24.929200724863012,
            60.1780253138688
          ],
          [
            24.929236149479813,
            60.17795526903895
          ]
        ]
      },
      "properties": {
        "case_fact": "R1",
        "name": "Mannerheimintie",
        "direction": "geometry order",
        "mapping_status": "candidate",
        "evidence_kind": "assumed_geometry"
      }
    },
    {
      "type": "Feature",
      "id": "osm:edge:1433225572_0:4035c667",
      "geometry": {
        "type": "LineString",
        "coordinates": [
          [
            24.9293136941681,
            60.177803337937384
          ],
          [
            24.929362395579428,
            60.17770570129805
          ],
          [
            24.929393998770756,
            60.17765338104506
          ],
          [
            24.9294378419068,
            60.17759137185103
          ]
        ]
      },
      "properties": {
        "case_fact": "R1",
        "name": "Mannerheimintie",
        "direction": "geometry order",
        "mapping_status": "candidate",
        "evidence_kind": "assumed_geometry"
      }
    },
    {
      "type": "Feature",
      "id": "osm:edge:1433225572_1:34a0afc4",
      "geometry": {
        "type": "LineString",
        "coordinates": [
          [
            24.92943979860664,
            60.177588932378754
          ],
          [
            24.929470375428405,
            60.177555772605416
          ]
        ]
      },
      "properties": {
        "case_fact": "R1",
        "name": "Mannerheimintie",
        "direction": "geometry order",
        "mapping_status": "candidate",
        "evidence_kind": "assumed_geometry"
      }
    },
    {
      "type": "Feature",
      "id": "osm:edge:1433225575:16f0bcc7",
      "geometry": {
        "type": "LineString",
        "coordinates": [
          [
            24.929586557699114,
            60.17744737892371
          ],
          [
            24.929600050414525,
            60.17743640716083
          ]
        ]
      },
      "properties": {
        "case_fact": "R1",
        "name": "Mannerheimintie",
        "direction": "geometry order",
        "mapping_status": "candidate",
        "evidence_kind": "assumed_geometry"
      }
    },
    {
      "type": "Feature",
      "id": "osm:edge:1433225579:f914d371",
      "geometry": {
        "type": "LineString",
        "coordinates": [
          [
            24.93084293798869,
            60.17633428481416
          ],
          [
            24.930853693792496,
            60.176325246231144
          ]
        ]
      },
      "properties": {
        "case_fact": "R1",
        "name": "Mannerheimintie",
        "direction": "geometry order",
        "mapping_status": "candidate",
        "evidence_kind": "assumed_geometry"
      }
    },
    {
      "type": "Feature",
      "id": "osm:edge:1433225580:6fb85667",
      "geometry": {
        "type": "LineString",
        "coordinates": [
          [
            24.930987415706007,
            60.1762144755844
          ],
          [
            24.930988277078086,
            60.17621368065524
          ]
        ]
      },
      "properties": {
        "case_fact": "R1",
        "name": "Mannerheimintie",
        "direction": "geometry order",
        "mapping_status": "candidate",
        "evidence_kind": "assumed_geometry"
      }
    },
    {
      "type": "Feature",
      "id": "osm:edge:23025074_0:7dece970",
      "geometry": {
        "type": "LineString",
        "coordinates": [
          [
            24.931825375792837,
            60.17545892365831
          ],
          [
            24.932557687121772,
            60.17473998167985
          ]
        ]
      },
      "properties": {
        "case_fact": "R1",
        "name": "Mannerheimintie",
        "direction": "geometry order",
        "mapping_status": "candidate",
        "evidence_kind": "assumed_geometry"
      }
    },
    {
      "type": "Feature",
      "id": "osm:edge:23025074_1:702a1035",
      "geometry": {
        "type": "LineString",
        "coordinates": [
          [
            24.93255989384975,
            60.17473786043494
          ],
          [
            24.932616357389982,
            60.17467856212641
          ]
        ]
      },
      "properties": {
        "case_fact": "R1",
        "name": "Mannerheimintie",
        "direction": "geometry order",
        "mapping_status": "candidate",
        "evidence_kind": "assumed_geometry"
      }
    },
    {
      "type": "Feature",
      "id": "osm:edge:23025074_2:63ab8a4c",
      "geometry": {
        "type": "LineString",
        "coordinates": [
          [
            24.932618372711804,
            60.17467661753384
          ],
          [
            24.93264735842424,
            60.17464859688924
          ]
        ]
      },
      "properties": {
        "case_fact": "R1",
        "name": "Mannerheimintie",
        "direction": "geometry order",
        "mapping_status": "candidate",
        "evidence_kind": "assumed_geometry"
      }
    },
    {
      "type": "Feature",
      "id": "osm:edge:240859297_1:3b6e6af7",
      "geometry": {
        "type": "LineString",
        "coordinates": [
          [
            24.931768656674002,
            60.1755150739711
          ],
          [
            24.93182306197875,
            60.17546131267981
          ]
        ]
      },
      "properties": {
        "case_fact": "R1",
        "name": "Mannerheimintie",
        "direction": "geometry order",
        "mapping_status": "candidate",
        "evidence_kind": "assumed_geometry"
      }
    },
    {
      "type": "Feature",
      "id": "osm:edge:257670066_0:8574666a",
      "geometry": {
        "type": "LineString",
        "coordinates": [
          [
            24.933097478481486,
            60.17416062195777
          ],
          [
            24.933208324959775,
            60.17403777091125
          ],
          [
            24.933297784690268,
            60.17394252016123
          ]
        ]
      },
      "properties": {
        "case_fact": "R1",
        "name": "Mannerheimintie",
        "direction": "geometry order",
        "mapping_status": "candidate",
        "evidence_kind": "assumed_geometry"
      }
    },
    {
      "type": "Feature",
      "id": "osm:edge:257670066_1:69dc9594",
      "geometry": {
        "type": "LineString",
        "coordinates": [
          [
            24.93330010392733,
            60.17394004138055
          ],
          [
            24.93335142025682,
            60.17388084214029
          ],
          [
            24.933460846174132,
            60.17376048369526
          ]
        ]
      },
      "properties": {
        "case_fact": "R1",
        "name": "Mannerheimintie",
        "direction": "geometry order",
        "mapping_status": "candidate",
        "evidence_kind": "assumed_geometry"
      }
    },
    {
      "type": "Feature",
      "id": "osm:edge:29507724_0:8dab72be",
      "geometry": {
        "type": "LineString",
        "coordinates": [
          [
            24.933536361171896,
            60.17367911702024
          ],
          [
            24.93363625514972,
            60.173574148606924
          ]
        ]
      },
      "properties": {
        "case_fact": "R1",
        "name": "Mannerheimintie",
        "direction": "geometry order",
        "mapping_status": "candidate",
        "evidence_kind": "assumed_geometry"
      }
    },
    {
      "type": "Feature",
      "id": "osm:edge:29507724_1:68ff7501",
      "geometry": {
        "type": "LineString",
        "coordinates": [
          [
            24.93363857433485,
            60.17357166981993
          ],
          [
            24.933862305710864,
            60.17334072902373
          ]
        ]
      },
      "properties": {
        "case_fact": "R1",
        "name": "Mannerheimintie",
        "direction": "geometry order",
        "mapping_status": "candidate",
        "evidence_kind": "assumed_geometry"
      }
    },
    {
      "type": "Feature",
      "id": "osm:edge:29507724_2:a9ff66b8",
      "geometry": {
        "type": "LineString",
        "coordinates": [
          [
            24.933975709658696,
            60.17322442919037
          ],
          [
            24.934633499937174,
            60.17255376034203
          ]
        ]
      },
      "properties": {
        "case_fact": "R1",
        "name": "Mannerheimintie",
        "direction": "geometry order",
        "mapping_status": "candidate",
        "evidence_kind": "assumed_geometry"
      }
    },
    {
      "type": "Feature",
      "id": "osm:edge:29507724_3:42678283",
      "geometry": {
        "type": "LineString",
        "coordinates": [
          [
            24.934635810521907,
            60.17255141613434
          ],
          [
            24.93470148606831,
            60.17248597320527
          ]
        ]
      },
      "properties": {
        "case_fact": "R1",
        "name": "Mannerheimintie",
        "direction": "geometry order",
        "mapping_status": "candidate",
        "evidence_kind": "assumed_geometry"
      }
    },
    {
      "type": "Feature",
      "id": "osm:edge:29722947:9fd4daf1",
      "geometry": {
        "type": "LineString",
        "coordinates": [
          [
            24.934754935991037,
            60.17243147734194
          ],
          [
            24.934756481064614,
            60.172429839758706
          ]
        ]
      },
      "properties": {
        "case_fact": "R1",
        "name": "Mannerheimintie",
        "direction": "geometry order",
        "mapping_status": "candidate",
        "evidence_kind": "assumed_geometry"
      }
    },
    {
      "type": "Feature",
      "id": "osm:edge:30259622_1:0a4c3112",
      "geometry": {
        "type": "LineString",
        "coordinates": [
          [
            24.927395150730813,
            60.181525705001214
          ],
          [
            24.927535476377624,
            60.18128781104711
          ]
        ]
      },
      "properties": {
        "case_fact": "R1",
        "name": "Mannerheimintie",
        "direction": "geometry order",
        "mapping_status": "candidate",
        "evidence_kind": "assumed_geometry"
      }
    },
    {
      "type": "Feature",
      "id": "osm:edge:30263045_0:14dfebb5",
      "geometry": {
        "type": "LineString",
        "coordinates": [
          [
            24.92960225186721,
            60.17743437569945
          ],
          [
            24.929717438757493,
            60.17733032262025
          ],
          [
            24.929851224191445,
            60.17721007805341
          ],
          [
            24.929888985676108,
            60.17717734479619
          ],
          [
            24.93002376334064,
            60.17704418151237
          ],
          [
            24.930517453058563,
            60.17660135613487
          ]
        ]
      },
      "properties": {
        "case_fact": "R1",
        "name": "Mannerheimintie",
        "direction": "geometry order",
        "mapping_status": "candidate",
        "evidence_kind": "assumed_geometry"
      }
    },
    {
      "type": "Feature",
      "id": "osm:edge:30263045_1:d8489f7b",
      "geometry": {
        "type": "LineString",
        "coordinates": [
          [
            24.930601758484613,
            60.17652951446771
          ],
          [
            24.930781325402968,
            60.17638362183663
          ]
        ]
      },
      "properties": {
        "case_fact": "R1",
        "name": "Mannerheimintie",
        "direction": "geometry order",
        "mapping_status": "candidate",
        "evidence_kind": "assumed_geometry"
      }
    },
    {
      "type": "Feature",
      "id": "osm:edge:30263045_2:8fe6f539",
      "geometry": {
        "type": "LineString",
        "coordinates": [
          [
            24.93078408402729,
            60.17638132959766
          ],
          [
            24.930805634941024,
            60.176364061431784
          ],
          [
            24.93084037361296,
            60.176336355537885
          ]
        ]
      },
      "properties": {
        "case_fact": "R1",
        "name": "Mannerheimintie",
        "direction": "geometry order",
        "mapping_status": "candidate",
        "evidence_kind": "assumed_geometry"
      }
    },
    {
      "type": "Feature",
      "id": "osm:edge:30287602:065a3eea",
      "geometry": {
        "type": "LineString",
        "coordinates": [
          [
            24.930990751372338,
            60.17621160852231
          ],
          [
            24.931286654474885,
            60.17596037659003
          ],
          [
            24.931575431169993,
            60.17570054482844
          ],
          [
            24.931722552287347,
            60.17556011755487
          ],
          [
            24.93176625279114,
            60.175517461585905
          ]
        ]
      },
      "properties": {
        "case_fact": "R1",
        "name": "Mannerheimintie",
        "direction": "geometry order",
        "mapping_status": "candidate",
        "evidence_kind": "assumed_geometry"
      }
    },
    {
      "type": "Feature",
      "id": "osm:edge:30287647_0:ee30a91c",
      "geometry": {
        "type": "LineString",
        "coordinates": [
          [
            24.928069891941426,
            60.18037340312834
          ],
          [
            24.928359839853947,
            60.17980695126678
          ]
        ]
      },
      "properties": {
        "case_fact": "R1",
        "name": "Mannerheimintie",
        "direction": "geometry order",
        "mapping_status": "candidate",
        "evidence_kind": "assumed_geometry"
      }
    },
    {
      "type": "Feature",
      "id": "osm:edge:30287647_1:e699cbc5",
      "geometry": {
        "type": "LineString",
        "coordinates": [
          [
            24.92840160178944,
            60.179725104576185
          ],
          [
            24.928758280338396,
            60.17902658205015
          ],
          [
            24.928793339801057,
            60.17893946585204
          ],
          [
            24.92879665249099,
            60.178906913028584
          ],
          [
            24.928859227303295,
            60.17871073648213
          ]
        ]
      },
      "properties": {
        "case_fact": "R1",
        "name": "Mannerheimintie",
        "direction": "geometry order",
        "mapping_status": "candidate",
        "evidence_kind": "assumed_geometry"
      }
    },
    {
      "type": "Feature",
      "id": "osm:edge:35868996:e8973dc0",
      "geometry": {
        "type": "LineString",
        "coordinates": [
          [
            24.93273561199319,
            60.174591231616496
          ],
          [
            24.932971680913788,
            60.174334886059825
          ],
          [
            24.933017211185557,
            60.17428457865824
          ]
        ]
      },
      "properties": {
        "case_fact": "R1",
        "name": "Mannerheimintie",
        "direction": "geometry order",
        "mapping_status": "candidate",
        "evidence_kind": "assumed_geometry"
      }
    },
    {
      "type": "Feature",
      "id": "osm:edge:79475796:099eb80c",
      "geometry": {
        "type": "LineString",
        "coordinates": [
          [
            24.92758359246388,
            60.181206782513605
          ],
          [
            24.927948750318507,
            60.18059601379881
          ],
          [
            24.92799112304268,
            60.18052167673071
          ],
          [
            24.928003559670525,
            60.18049887729631
          ]
        ]
      },
      "properties": {
        "case_fact": "R1",
        "name": "Mannerheimintie",
        "direction": "geometry order",
        "mapping_status": "candidate",
        "evidence_kind": "assumed_geometry"
      }
    },
    {
      "type": "Feature",
      "id": "osm:edge:1041931968:91131be7",
      "geometry": {
        "type": "LineString",
        "coordinates": [
          [
            24.929466519189614,
            60.182572417461074
          ],
          [
            24.929444952246136,
            60.182565523677084
          ]
        ]
      },
      "properties": {
        "case_fact": "R2",
        "name": "Helsinginkatu",
        "direction": "geometry order",
        "mapping_status": "candidate",
        "evidence_kind": "assumed_geometry"
      }
    },
    {
      "type": "Feature",
      "id": "osm:edge:1182963778_0:73cd93f2",
      "geometry": {
        "type": "LineString",
        "coordinates": [
          [
            24.92761145191592,
            60.18197926452961
          ],
          [
            24.92749463856362,
            60.181935671629326
          ],
          [
            24.927469290030054,
            60.18192584414311
          ]
        ]
      },
      "properties": {
        "case_fact": "R2",
        "name": "Helsinginkatu",
        "direction": "geometry order",
        "mapping_status": "candidate",
        "evidence_kind": "assumed_geometry"
      }
    },
    {
      "type": "Feature",
      "id": "osm:edge:138327942_0:0d0cf5ab",
      "geometry": {
        "type": "LineString",
        "coordinates": [
          [
            24.9404436955665,
            60.18584124041024
          ],
          [
            24.940447299142747,
            60.18584129640618
          ]
        ]
      },
      "properties": {
        "case_fact": "R2",
        "name": "Helsinginkatu",
        "direction": "geometry order",
        "mapping_status": "candidate",
        "evidence_kind": "assumed_geometry"
      }
    },
    {
      "type": "Feature",
      "id": "osm:edge:15242734:5278937c",
      "geometry": {
        "type": "LineString",
        "coordinates": [
          [
            24.927397410761763,
            60.18169725132569
          ],
          [
            24.92741230292256,
            60.18170273868158
          ],
          [
            24.927425072827326,
            60.18170756410768
          ]
        ]
      },
      "properties": {
        "case_fact": "R2",
        "name": "Helsinginkatu",
        "direction": "geometry order",
        "mapping_status": "candidate",
        "evidence_kind": "assumed_geometry"
      }
    },
    {
      "type": "Feature",
      "id": "osm:edge:15242735_0:fd9604bd",
      "geometry": {
        "type": "LineString",
        "coordinates": [
          [
            24.934312937089732,
            60.18496826429376
          ],
          [
            24.934617645347906,
            60.185026994571366
          ],
          [
            24.93583490434202,
            60.185198112159824
          ]
        ]
      },
      "properties": {
        "case_fact": "R2",
        "name": "Helsinginkatu",
        "direction": "geometry order",
        "mapping_status": "candidate",
        "evidence_kind": "assumed_geometry"
      }
    },
    {
      "type": "Feature",
      "id": "osm:edge:15242735_1:00b47ead",
      "geometry": {
        "type": "LineString",
        "coordinates": [
          [
            24.936083910415658,
            60.18523351660973
          ],
          [
            24.937176902908902,
            60.18539056092814
          ]
        ]
      },
      "properties": {
        "case_fact": "R2",
        "name": "Helsinginkatu",
        "direction": "geometry order",
        "mapping_status": "candidate",
        "evidence_kind": "assumed_geometry"
      }
    },
    {
      "type": "Feature",
      "id": "osm:edge:194541877_1:65bc4cfe",
      "geometry": {
        "type": "LineString",
        "coordinates": [
          [
            24.931805885446433,
            60.183800223155515
          ],
          [
            24.93183832414245,
            60.18386795938714
          ]
        ]
      },
      "properties": {
        "case_fact": "R2",
        "name": "Helsinginkatu",
        "direction": "geometry order",
        "mapping_status": "candidate",
        "evidence_kind": "assumed_geometry"
      }
    },
    {
      "type": "Feature",
      "id": "osm:edge:232826533:636fb759",
      "geometry": {
        "type": "LineString",
        "coordinates": [
          [
            24.93159564823212,
            60.18397581817426
          ],
          [
            24.93159504047408,
            60.183974012295536
          ]
        ]
      },
      "properties": {
        "case_fact": "R2",
        "name": "Helsinginkatu",
        "direction": "geometry order",
        "mapping_status": "candidate",
        "evidence_kind": "assumed_geometry"
      }
    },
    {
      "type": "Feature",
      "id": "osm:edge:24662114_0:d1aeaeee",
      "geometry": {
        "type": "LineString",
        "coordinates": [
          [
            24.930440461424947,
            60.182868406222035
          ],
          [
            24.93015563605619,
            60.182792192250645
          ],
          [
            24.929842734724748,
            60.18269218597101
          ],
          [
            24.929598730139947,
            60.18261499163256
          ]
        ]
      },
      "properties": {
        "case_fact": "R2",
        "name": "Helsinginkatu",
        "direction": "geometry order",
        "mapping_status": "candidate",
        "evidence_kind": "assumed_geometry"
      }
    },
    {
      "type": "Feature",
      "id": "osm:edge:24662114_1:3d84634c",
      "geometry": {
        "type": "LineString",
        "coordinates": [
          [
            24.929594130743812,
            60.182613572484584
          ],
          [
            24.92956461477628,
            60.18260403958764
          ]
        ]
      },
      "properties": {
        "case_fact": "R2",
        "name": "Helsinginkatu",
        "direction": "geometry order",
        "mapping_status": "candidate",
        "evidence_kind": "assumed_geometry"
      }
    },
    {
      "type": "Feature",
      "id": "osm:edge:24662115_0:ddd6cedb",
      "geometry": {
        "type": "LineString",
        "coordinates": [
          [
            24.93234025774299,
            60.18465591961375
          ],
          [
            24.932466232474297,
            60.184688872613414
          ],
          [
            24.932576117370544,
            60.18471097579085
          ],
          [
            24.933713210940418,
            60.18487744946289
          ]
        ]
      },
      "properties": {
        "case_fact": "R2",
        "name": "Helsinginkatu",
        "direction": "geometry order",
        "mapping_status": "candidate",
        "evidence_kind": "assumed_geometry"
      }
    },
    {
      "type": "Feature",
      "id": "osm:edge:24662115_1:88463365",
      "geometry": {
        "type": "LineString",
        "coordinates": [
          [
            24.933713210940418,
            60.18487744946289
          ],
          [
            24.933979125644093,
            60.184916355031305
          ]
        ]
      },
      "properties": {
        "case_fact": "R2",
        "name": "Helsinginkatu",
        "direction": "geometry order",
        "mapping_status": "candidate",
        "evidence_kind": "assumed_geometry"
      }
    },
    {
      "type": "Feature",
      "id": "osm:edge:24662116:044674b7",
      "geometry": {
        "type": "LineString",
        "coordinates": [
          [
            24.93411717305841,
            60.18493660550896
          ],
          [
            24.934182400572787,
            60.18494615506086
          ]
        ]
      },
      "properties": {
        "case_fact": "R2",
        "name": "Helsinginkatu",
        "direction": "geometry order",
        "mapping_status": "candidate",
        "evidence_kind": "assumed_geometry"
      }
    },
    {
      "type": "Feature",
      "id": "osm:edge:24662142_1:f6598d99",
      "geometry": {
        "type": "LineString",
        "coordinates": [
          [
            24.94009998581885,
            60.185814611853544
          ],
          [
            24.94022454141481,
            60.18583298454305
          ]
        ]
      },
      "properties": {
        "case_fact": "R2",
        "name": "Helsinginkatu",
        "direction": "geometry order",
        "mapping_status": "candidate",
        "evidence_kind": "assumed_geometry"
      }
    },
    {
      "type": "Feature",
      "id": "osm:edge:24662142_2:2a368e74",
      "geometry": {
        "type": "LineString",
        "coordinates": [
          [
            24.94023098286973,
            60.18583380320272
          ],
          [
            24.94030102795798,
            60.18584135872582
          ]
        ]
      },
      "properties": {
        "case_fact": "R2",
        "name": "Helsinginkatu",
        "direction": "geometry order",
        "mapping_status": "candidate",
        "evidence_kind": "assumed_geometry"
      }
    },
    {
      "type": "Feature",
      "id": "osm:edge:268334019:aca021d9",
      "geometry": {
        "type": "LineString",
        "coordinates": [
          [
            24.927268190265867,
            60.1818318912882
          ],
          [
            24.92724742582869,
            60.18181800373945
          ]
        ]
      },
      "properties": {
        "case_fact": "R2",
        "name": "Helsinginkatu",
        "direction": "geometry order",
        "mapping_status": "candidate",
        "evidence_kind": "assumed_geometry"
      }
    },
    {
      "type": "Feature",
      "id": "osm:edge:286681486_0:05d265f1",
      "geometry": {
        "type": "LineString",
        "coordinates": [
          [
            24.93718226314255,
            60.185391362909854
          ],
          [
            24.939531247100277,
            60.18573247885378
          ]
        ]
      },
      "properties": {
        "case_fact": "R2",
        "name": "Helsinginkatu",
        "direction": "geometry order",
        "mapping_status": "candidate",
        "evidence_kind": "assumed_geometry"
      }
    },
    {
      "type": "Feature",
      "id": "osm:edge:286681486_1:b7a40344",
      "geometry": {
        "type": "LineString",
        "coordinates": [
          [
            24.939694067754687,
            60.18575611751945
          ],
          [
            24.939753403295637,
            60.18576476433018
          ],
          [
            24.94009498580005,
            60.18581381558972
          ]
        ]
      },
      "properties": {
        "case_fact": "R2",
        "name": "Helsinginkatu",
        "direction": "geometry order",
        "mapping_status": "candidate",
        "evidence_kind": "assumed_geometry"
      }
    },
    {
      "type": "Feature",
      "id": "osm:edge:287399249_1:39ebce46",
      "geometry": {
        "type": "LineString",
        "coordinates": [
          [
            24.934276608905712,
            60.18513166377248
          ],
          [
            24.934152903879777,
            60.18511419688159
          ]
        ]
      },
      "properties": {
        "case_fact": "R2",
        "name": "Helsinginkatu",
        "direction": "geometry order",
        "mapping_status": "candidate",
        "evidence_kind": "assumed_geometry"
      }
    },
    {
      "type": "Feature",
      "id": "osm:edge:287399249_2:4a0298b5",
      "geometry": {
        "type": "LineString",
        "coordinates": [
          [
            24.93414762821575,
            60.185113485913874
          ],
          [
            24.934094001732717,
            60.18510586865869
          ]
        ]
      },
      "properties": {
        "case_fact": "R2",
        "name": "Helsinginkatu",
        "direction": "geometry order",
        "mapping_status": "candidate",
        "evidence_kind": "assumed_geometry"
      }
    },
    {
      "type": "Feature",
      "id": "osm:edge:30258924_0:99b4a4a2",
      "geometry": {
        "type": "LineString",
        "coordinates": [
          [
            24.93384261443401,
            60.18506965984849
          ],
          [
            24.932535858784757,
            60.184877951271865
          ],
          [
            24.932420196131662,
            60.18485881180305
          ],
          [
            24.93230246271208,
            60.18483245435349
          ],
          [
            24.932175947970123,
            60.18479374431928
          ],
          [
            24.93207384185474,
            60.18475119347582
          ],
          [
            24.932021588103012,
            60.18472177060909
          ]
        ]
      },
      "properties": {
        "case_fact": "R2",
        "name": "Helsinginkatu",
        "direction": "geometry order",
        "mapping_status": "candidate",
        "evidence_kind": "assumed_geometry"
      }
    },
    {
      "type": "Feature",
      "id": "osm:edge:30258924_1:ee2d30a9",
      "geometry": {
        "type": "LineString",
        "coordinates": [
          [
            24.931878065988233,
            60.18462373848019
          ],
          [
            24.931841431047747,
            60.18457825698331
          ],
          [
            24.93179576372848,
            60.18450721555887
          ],
          [
            24.931689160439685,
            60.18421368294308
          ]
        ]
      },
      "properties": {
        "case_fact": "R2",
        "name": "Helsinginkatu",
        "direction": "geometry order",
        "mapping_status": "candidate",
        "evidence_kind": "assumed_geometry"
      }
    },
    {
      "type": "Feature",
      "id": "osm:edge:30258926:55aedc65",
      "geometry": {
        "type": "LineString",
        "coordinates": [
          [
            24.931557054487076,
            60.18386833042625
          ],
          [
            24.931521654000946,
            60.18377315288839
          ],
          [
            24.93136794303035,
            60.183427283291955
          ],
          [
            24.93132622547221,
            60.18335369854511
          ],
          [
            24.931274774646944,
            60.1832743032141
          ],
          [
            24.931224671891034,
            60.18321361140181
          ],
          [
            24.931139799444523,
            60.183143754121204
          ],
          [
            24.93104976771369,
            60.18308710955913
          ],
          [
            24.93095389094449,
            60.183037379620174
          ],
          [
            24.93074800207273,
            60.18296195015369
          ],
          [
            24.930561427483934,
            60.18290343859275
          ]
        ]
      },
      "properties": {
        "case_fact": "R2",
        "name": "Helsinginkatu",
        "direction": "geometry order",
        "mapping_status": "candidate",
        "evidence_kind": "assumed_geometry"
      }
    },
    {
      "type": "Feature",
      "id": "osm:edge:30259444_0:400b8ef4",
      "geometry": {
        "type": "LineString",
        "coordinates": [
          [
            24.92935020645146,
            60.182535121453
          ],
          [
            24.929302664763853,
            60.18251973803808
          ]
        ]
      },
      "properties": {
        "case_fact": "R2",
        "name": "Helsinginkatu",
        "direction": "geometry order",
        "mapping_status": "candidate",
        "evidence_kind": "assumed_geometry"
      }
    },
    {
      "type": "Feature",
      "id": "osm:edge:30259444_1:bb28d1c1",
      "geometry": {
        "type": "LineString",
        "coordinates": [
          [
            24.929298071045494,
            60.18251822914845
          ],
          [
            24.92774648965908,
            60.18202269318416
          ]
        ]
      },
      "properties": {
        "case_fact": "R2",
        "name": "Helsinginkatu",
        "direction": "geometry order",
        "mapping_status": "candidate",
        "evidence_kind": "assumed_geometry"
      }
    },
    {
      "type": "Feature",
      "id": "osm:edge:30259444_2:38907c4a",
      "geometry": {
        "type": "LineString",
        "coordinates": [
          [
            24.927741896082214,
            60.182021184241236
          ],
          [
            24.927616568981463,
            60.18198105112253
          ]
        ]
      },
      "properties": {
        "case_fact": "R2",
        "name": "Helsinginkatu",
        "direction": "geometry order",
        "mapping_status": "candidate",
        "evidence_kind": "assumed_geometry"
      }
    },
    {
      "type": "Feature",
      "id": "osm:edge:30259446:f61ddc18",
      "geometry": {
        "type": "LineString",
        "coordinates": [
          [
            24.92962655067869,
            60.182432373563394
          ],
          [
            24.929710250884533,
            60.18246062701174
          ]
        ]
      },
      "properties": {
        "case_fact": "R2",
        "name": "Helsinginkatu",
        "direction": "geometry order",
        "mapping_status": "candidate",
        "evidence_kind": "assumed_geometry"
      }
    },
    {
      "type": "Feature",
      "id": "osm:edge:30259447:ed2e7974",
      "geometry": {
        "type": "LineString",
        "coordinates": [
          [
            24.929826197485127,
            60.18249944391932
          ],
          [
            24.930028125353424,
            60.18256610049379
          ],
          [
            24.93072427726218,
            60.18278876657735
          ],
          [
            24.930740186776656,
            60.18279386524296
          ]
        ]
      },
      "properties": {
        "case_fact": "R2",
        "name": "Helsinginkatu",
        "direction": "geometry order",
        "mapping_status": "candidate",
        "evidence_kind": "assumed_geometry"
      }
    },
    {
      "type": "Feature",
      "id": "osm:edge:30259448_0:3c5dbfd6",
      "geometry": {
        "type": "LineString",
        "coordinates": [
          [
            24.927597260935386,
            60.18176953787167
          ],
          [
            24.927600174105596,
            60.181770526534045
          ]
        ]
      },
      "properties": {
        "case_fact": "R2",
        "name": "Helsinginkatu",
        "direction": "geometry order",
        "mapping_status": "candidate",
        "evidence_kind": "assumed_geometry"
      }
    },
    {
      "type": "Feature",
      "id": "osm:edge:30284759_0:b936771e",
      "geometry": {
        "type": "LineString",
        "coordinates": [
          [
            24.94017454724706,
            60.185988987390886
          ],
          [
            24.94014372760023,
            60.1859828947057
          ]
        ]
      },
      "properties": {
        "case_fact": "R2",
        "name": "Helsinginkatu",
        "direction": "geometry order",
        "mapping_status": "candidate",
        "evidence_kind": "assumed_geometry"
      }
    },
    {
      "type": "Feature",
      "id": "osm:edge:30284759_1:99237c7b",
      "geometry": {
        "type": "LineString",
        "coordinates": [
          [
            24.94013971573097,
            60.18598215871063
          ],
          [
            24.940003348954292,
            60.185957988660796
          ],
          [
            24.93954302548867,
            60.18588409753576
          ],
          [
            24.937688138302185,
            60.185612915853405
          ],
          [
            24.93711381815414,
            60.185539398022684
          ],
          [
            24.934281791669157,
            60.185132418196886
          ]
        ]
      },
      "properties": {
        "case_fact": "R2",
        "name": "Helsinginkatu",
        "direction": "geometry order",
        "mapping_status": "candidate",
        "evidence_kind": "assumed_geometry"
      }
    },
    {
      "type": "Feature",
      "id": "osm:edge:30472577_0:b7751117",
      "geometry": {
        "type": "LineString",
        "coordinates": [
          [
            24.931899185774668,
            60.18399703687081
          ],
          [
            24.931913864338103,
            60.18402888244325
          ],
          [
            24.931943278226335,
            60.184090239156106
          ]
        ]
      },
      "properties": {
        "case_fact": "R2",
        "name": "Helsinginkatu",
        "direction": "geometry order",
        "mapping_status": "candidate",
        "evidence_kind": "assumed_geometry"
      }
    },
    {
      "type": "Feature",
      "id": "osm:edge:30472577_2:28feae41",
      "geometry": {
        "type": "LineString",
        "coordinates": [
          [
            24.93194438417518,
            60.18409272645422
          ],
          [
            24.932140599923244,
            60.1844697522055
          ],
          [
            24.932176371606023,
            60.18452896255775
          ],
          [
            24.93221867647943,
            60.18457605935204
          ],
          [
            24.9322361706297,
            60.18459038906356
          ]
        ]
      },
      "properties": {
        "case_fact": "R2",
        "name": "Helsinginkatu",
        "direction": "geometry order",
        "mapping_status": "candidate",
        "evidence_kind": "assumed_geometry"
      }
    },
    {
      "type": "Feature",
      "id": "osm:edge:4252370:e59006cb",
      "geometry": {
        "type": "LineString",
        "coordinates": [
          [
            24.9404804767835,
            60.18600838204865
          ],
          [
            24.94047688162164,
            60.186008191455464
          ]
        ]
      },
      "properties": {
        "case_fact": "R2",
        "name": "Helsinginkatu",
        "direction": "geometry order",
        "mapping_status": "candidate",
        "evidence_kind": "assumed_geometry"
      }
    },
    {
      "type": "Feature",
      "id": "osm:edge:52915322:4af12246",
      "geometry": {
        "type": "LineString",
        "coordinates": [
          [
            24.92781957163335,
            60.18184455551771
          ],
          [
            24.92895693619504,
            60.18221092462364
          ],
          [
            24.929390284377327,
            60.18235404222187
          ]
        ]
      },
      "properties": {
        "case_fact": "R2",
        "name": "Helsinginkatu",
        "direction": "geometry order",
        "mapping_status": "candidate",
        "evidence_kind": "assumed_geometry"
      }
    },
    {
      "type": "Feature",
      "id": "osm:edge:58125307_0:93dd297e",
      "geometry": {
        "type": "LineString",
        "coordinates": [
          [
            24.929394878077204,
            60.182355551108216
          ],
          [
            24.92947953519014,
            60.182382921459315
          ]
        ]
      },
      "properties": {
        "case_fact": "R2",
        "name": "Helsinginkatu",
        "direction": "geometry order",
        "mapping_status": "candidate",
        "evidence_kind": "assumed_geometry"
      }
    },
    {
      "type": "Feature",
      "id": "osm:edge:58125307_1:497111df",
      "geometry": {
        "type": "LineString",
        "coordinates": [
          [
            24.92948377423193,
            60.182384334981954
          ],
          [
            24.92953269492121,
            60.18240072789425
          ]
        ]
      },
      "properties": {
        "case_fact": "R2",
        "name": "Helsinginkatu",
        "direction": "geometry order",
        "mapping_status": "candidate",
        "evidence_kind": "assumed_geometry"
      }
    },
    {
      "type": "Feature",
      "id": "osm:edge:58125320_1:7b776e52",
      "geometry": {
        "type": "LineString",
        "coordinates": [
          [
            24.93088298407098,
            60.18284019618084
          ],
          [
            24.93105919313885,
            60.182902946639594
          ],
          [
            24.931224128588024,
            60.18298150878958
          ],
          [
            24.93131835385819,
            60.18304315877407
          ],
          [
            24.931366850445198,
            60.18308065199922
          ],
          [
            24.93142353663202,
            60.18313129688586
          ],
          [
            24.931487420875165,
            60.183199389292284
          ],
          [
            24.931537610459902,
            60.183281639083454
          ],
          [
            24.931804689434156,
            60.183797734450515
          ]
        ]
      },
      "properties": {
        "case_fact": "R2",
        "name": "Helsinginkatu",
        "direction": "geometry order",
        "mapping_status": "candidate",
        "evidence_kind": "assumed_geometry"
      }
    },
    {
      "type": "Feature",
      "id": "osm:edge:606094335_1:7258e5c2",
      "geometry": {
        "type": "LineString",
        "coordinates": [
          [
            24.931688153058882,
            60.18421106245143
          ],
          [
            24.931653198467583,
            60.18412168528913
          ]
        ]
      },
      "properties": {
        "case_fact": "R2",
        "name": "Helsinginkatu",
        "direction": "geometry order",
        "mapping_status": "candidate",
        "evidence_kind": "assumed_geometry"
      }
    },
    {
      "type": "Feature",
      "id": "osm:edge:606094335_2:d0cb97f2",
      "geometry": {
        "type": "LineString",
        "coordinates": [
          [
            24.93165226706278,
            60.18411929053199
          ],
          [
            24.93162544354849,
            60.18405833345393
          ]
        ]
      },
      "properties": {
        "case_fact": "R2",
        "name": "Helsinginkatu",
        "direction": "geometry order",
        "mapping_status": "candidate",
        "evidence_kind": "assumed_geometry"
      }
    },
    {
      "type": "Feature",
      "id": "osm:edge:606094335_3:1340c921",
      "geometry": {
        "type": "LineString",
        "coordinates": [
          [
            24.931625353464472,
            60.184058332048075
          ],
          [
            24.93162459094032,
            60.18405611956564
          ]
        ]
      },
      "properties": {
        "case_fact": "R2",
        "name": "Helsinginkatu",
        "direction": "geometry order",
        "mapping_status": "candidate",
        "evidence_kind": "assumed_geometry"
      }
    },
    {
      "type": "Feature",
      "id": "osm:edge:-84667269_0:aeb0c586",
      "geometry": {
        "type": "LineString",
        "coordinates": [
          [
            24.929566792256082,
            60.18442507927437
          ],
          [
            24.92940356046758,
            60.184413906537344
          ],
          [
            24.928682930665083,
            60.18434462272835
          ],
          [
            24.928575692643356,
            60.184334952777895
          ],
          [
            24.928443912870797,
            60.18432265365772
          ]
        ]
      },
      "properties": {
        "case_fact": "R3",
        "name": "Mäntymäentie",
        "direction": "geometry order",
        "mapping_status": "candidate",
        "evidence_kind": "assumed_geometry"
      }
    },
    {
      "type": "Feature",
      "id": "osm:edge:-84667269_1:10b68b73",
      "geometry": {
        "type": "LineString",
        "coordinates": [
          [
            24.93071772053403,
            60.18414503180332
          ],
          [
            24.930064956891545,
            60.18435274126466
          ],
          [
            24.929964500090335,
            60.18438144155627
          ],
          [
            24.929859185470736,
            60.18440422761466
          ],
          [
            24.929773984530463,
            60.18441690867918
          ],
          [
            24.929731767634753,
            60.18442002167217
          ]
        ]
      },
      "properties": {
        "case_fact": "R3",
        "name": "Mäntymäentie",
        "direction": "geometry order",
        "mapping_status": "candidate",
        "evidence_kind": "assumed_geometry"
      }
    },
    {
      "type": "Feature",
      "id": "osm:edge:-84667270_1:6f8ef5a1",
      "geometry": {
        "type": "LineString",
        "coordinates": [
          [
            24.92675291375225,
            60.184175045414065
          ],
          [
            24.92670986014876,
            60.184171407868554
          ],
          [
            24.926487475173744,
            60.18415454570279
          ],
          [
            24.926255252866053,
            60.18414211005187
          ],
          [
            24.926122460565743,
            60.184148744749876
          ],
          [
            24.925998881157266,
            60.18416657132601
          ],
          [
            24.92586991425469,
            60.18419832537302
          ]
        ]
      },
      "properties": {
        "case_fact": "R3",
        "name": "Mäntymäentie",
        "direction": "geometry order",
        "mapping_status": "candidate",
        "evidence_kind": "assumed_geometry"
      }
    },
    {
      "type": "Feature",
      "id": "osm:edge:-84667270_3:c2890add",
      "geometry": {
        "type": "LineString",
        "coordinates": [
          [
            24.92709526012453,
            60.18420285522325
          ],
          [
            24.92707246927613,
            60.184201061647855
          ],
          [
            24.926920843835713,
            60.184188899702555
          ]
        ]
      },
      "properties": {
        "case_fact": "R3",
        "name": "Mäntymäentie",
        "direction": "geometry order",
        "mapping_status": "candidate",
        "evidence_kind": "assumed_geometry"
      }
    },
    {
      "type": "Feature",
      "id": "osm:edge:-84667273_0:31949d44",
      "geometry": {
        "type": "LineString",
        "coordinates": [
          [
            24.92824542133154,
            60.18430437152201
          ],
          [
            24.927344050453552,
            60.184224261014656
          ],
          [
            24.927263522552423,
            60.18421716337142
          ]
        ]
      },
      "properties": {
        "case_fact": "R3",
        "name": "Mäntymäentie",
        "direction": "geometry order",
        "mapping_status": "candidate",
        "evidence_kind": "assumed_geometry"
      }
    },
    {
      "type": "Feature",
      "id": "osm:edge:138324247:77eee712",
      "geometry": {
        "type": "LineString",
        "coordinates": [
          [
            24.925844305365693,
            60.184172595403915
          ],
          [
            24.925977855641104,
            60.18413965562895
          ],
          [
            24.926111626244925,
            60.18412037178611
          ],
          [
            24.92625563411391,
            60.18411319402849
          ],
          [
            24.926495040292682,
            60.1841261013513
          ],
          [
            24.926718866423354,
            60.18414298605069
          ],
          [
            24.926762635003808,
            60.18414672459779
          ]
        ]
      },
      "properties": {
        "case_fact": "R3",
        "name": "Mäntymäentie",
        "direction": "geometry order",
        "mapping_status": "candidate",
        "evidence_kind": "assumed_geometry"
      }
    },
    {
      "type": "Feature",
      "id": "osm:edge:232826537:db36fd47",
      "geometry": {
        "type": "LineString",
        "coordinates": [
          [
            24.93169832868435,
            60.18398339361747
          ],
          [
            24.931695215026334,
            60.183984153403976
          ]
        ]
      },
      "properties": {
        "case_fact": "R3",
        "name": "Mäntymäentie",
        "direction": "geometry order",
        "mapping_status": "candidate",
        "evidence_kind": "assumed_geometry"
      }
    },
    {
      "type": "Feature",
      "id": "osm:edge:301192516_0:2762e34e",
      "geometry": {
        "type": "LineString",
        "coordinates": [
          [
            24.930882613274065,
            60.18404956795806
          ],
          [
            24.93096829168783,
            60.184020681191406
          ],
          [
            24.93106401644659,
            60.18399549907724
          ],
          [
            24.931167227981206,
            60.18397743969831
          ],
          [
            24.931337752230284,
            60.18395724229965
          ]
        ]
      },
      "properties": {
        "case_fact": "R3",
        "name": "Mäntymäentie",
        "direction": "geometry order",
        "mapping_status": "candidate",
        "evidence_kind": "assumed_geometry"
      }
    },
    {
      "type": "Feature",
      "id": "osm:edge:301192516_1:9e64903c",
      "geometry": {
        "type": "LineString",
        "coordinates": [
          [
            24.931343019433832,
            60.183956650864296
          ],
          [
            24.93141058940296,
            60.18394899299105
          ]
        ]
      },
      "properties": {
        "case_fact": "R3",
        "name": "Mäntymäentie",
        "direction": "geometry order",
        "mapping_status": "candidate",
        "evidence_kind": "assumed_geometry"
      }
    },
    {
      "type": "Feature",
      "id": "osm:edge:301192516_2:f2a96952",
      "geometry": {
        "type": "LineString",
        "coordinates": [
          [
            24.931415859426988,
            60.18394835668699
          ],
          [
            24.931491514562154,
            60.1839397471278
          ]
        ]
      },
      "properties": {
        "case_fact": "R3",
        "name": "Mäntymäentie",
        "direction": "geometry order",
        "mapping_status": "candidate",
        "evidence_kind": "assumed_geometry"
      }
    },
    {
      "type": "Feature",
      "id": "osm:edge:301192516_3:fcdb1ea7",
      "geometry": {
        "type": "LineString",
        "coordinates": [
          [
            24.931471583231687,
            60.1839412324476
          ],
          [
            24.931475119079458,
            60.18394092835405
          ]
        ]
      },
      "properties": {
        "case_fact": "R3",
        "name": "Mäntymäentie",
        "direction": "geometry order",
        "mapping_status": "candidate",
        "evidence_kind": "assumed_geometry"
      }
    },
    {
      "type": "Feature",
      "id": "osm:edge:30258927:da213678",
      "geometry": {
        "type": "LineString",
        "coordinates": [
          [
            24.931682966458173,
            60.183933753051384
          ],
          [
            24.931686564160202,
            60.18393389901593
          ]
        ]
      },
      "properties": {
        "case_fact": "R3",
        "name": "Mäntymäentie",
        "direction": "geometry order",
        "mapping_status": "candidate",
        "evidence_kind": "assumed_geometry"
      }
    },
    {
      "type": "Feature",
      "id": "osm:edge:332167631_0:586e2428",
      "geometry": {
        "type": "LineString",
        "coordinates": [
          [
            24.93150334079248,
            60.18402121852293
          ],
          [
            24.931499883728446,
            60.18402170348627
          ]
        ]
      },
      "properties": {
        "case_fact": "R3",
        "name": "Mäntymäentie",
        "direction": "geometry order",
        "mapping_status": "candidate",
        "evidence_kind": "assumed_geometry"
      }
    },
    {
      "type": "Feature",
      "id": "osm:edge:332167631_1:94cc72e1",
      "geometry": {
        "type": "LineString",
        "coordinates": [
          [
            24.93152119484373,
            60.18401835348248
          ],
          [
            24.931443085190008,
            60.18402440979993
          ]
        ]
      },
      "properties": {
        "case_fact": "R3",
        "name": "Mäntymäentie",
        "direction": "geometry order",
        "mapping_status": "candidate",
        "evidence_kind": "assumed_geometry"
      }
    },
    {
      "type": "Feature",
      "id": "osm:edge:332167631_2:d8956c36",
      "geometry": {
        "type": "LineString",
        "coordinates": [
          [
            24.931438732931632,
            60.18402479097023
          ],
          [
            24.93117277736059,
            60.18404974136164
          ],
          [
            24.931027513036916,
            60.18406831193737
          ],
          [
            24.93083591772818,
            60.18411238639405
          ]
        ]
      },
      "properties": {
        "case_fact": "R3",
        "name": "Mäntymäentie",
        "direction": "geometry order",
        "mapping_status": "candidate",
        "evidence_kind": "assumed_geometry"
      }
    },
    {
      "type": "Feature",
      "id": "osm:edge:43735131:d34c2f63",
      "geometry": {
        "type": "LineString",
        "coordinates": [
          [
            24.930793695352726,
            60.18407404783825
          ],
          [
            24.9308781087988,
            60.18405093475047
          ]
        ]
      },
      "properties": {
        "case_fact": "R3",
        "name": "Mäntymäentie",
        "direction": "geometry order",
        "mapping_status": "candidate",
        "evidence_kind": "assumed_geometry"
      }
    },
    {
      "type": "Feature",
      "id": "osm:edge:84667269_1:844c20b9",
      "geometry": {
        "type": "LineString",
        "coordinates": [
          [
            24.92972345813456,
            60.184391598657214
          ],
          [
            24.929761322669492,
            60.18438886678151
          ],
          [
            24.92983924895229,
            60.18437714993592
          ],
          [
            24.92993870767152,
            60.18435570954771
          ],
          [
            24.930035121591036,
            60.18432820361034
          ],
          [
            24.930686781326422,
            60.184120836341755
          ]
        ]
      },
      "properties": {
        "case_fact": "R3",
        "name": "Mäntymäentie",
        "direction": "geometry order",
        "mapping_status": "candidate",
        "evidence_kind": "assumed_geometry"
      }
    },
    {
      "type": "Feature",
      "id": "osm:edge:84667270_2:dd777d88",
      "geometry": {
        "type": "LineString",
        "coordinates": [
          [
            24.926930030101396,
            60.184160480687616
          ],
          [
            24.927081475246432,
            60.18417263980391
          ],
          [
            24.927104266075684,
            60.18417443337768
          ]
        ]
      },
      "properties": {
        "case_fact": "R3",
        "name": "Mäntymäentie",
        "direction": "geometry order",
        "mapping_status": "candidate",
        "evidence_kind": "assumed_geometry"
      }
    },
    {
      "type": "Feature",
      "id": "osm:edge:84667270_4:5529810f",
      "geometry": {
        "type": "LineString",
        "coordinates": [
          [
            24.927274679066805,
            60.184188954788205
          ],
          [
            24.927354125891636,
            60.1841960355191
          ],
          [
            24.928256042184568,
            60.18427606467197
          ]
        ]
      },
      "properties": {
        "case_fact": "R3",
        "name": "Mäntymäentie",
        "direction": "geometry order",
        "mapping_status": "candidate",
        "evidence_kind": "assumed_geometry"
      }
    },
    {
      "type": "Feature",
      "id": "osm:edge:84667273_1:adb07055",
      "geometry": {
        "type": "LineString",
        "coordinates": [
          [
            24.928454527905238,
            60.18429443652241
          ],
          [
            24.928586127400045,
            60.18430673281565
          ],
          [
            24.928693545502277,
            60.18431640557295
          ],
          [
            24.929412924827314,
            60.18438549015534
          ],
          [
            24.9295660952334,
            60.184396056609025
          ]
        ]
      },
      "properties": {
        "case_fact": "R3",
        "name": "Mäntymäentie",
        "direction": "geometry order",
        "mapping_status": "candidate",
        "evidence_kind": "assumed_geometry"
      }
    },
    {
      "type": "Feature",
      "id": "osm:edge:-442599097_2:19be261d",
      "geometry": {
        "type": "LineString",
        "coordinates": [
          [
            24.982463545850337,
            60.18495476813627
          ],
          [
            24.982438398776292,
            60.18496193007773
          ],
          [
            24.981108432100978,
            60.18533337591347
          ],
          [
            24.98102218759836,
            60.18535748077258
          ]
        ]
      },
      "properties": {
        "case_fact": "F1",
        "name": "Leonkatu",
        "direction": "geometry order",
        "mapping_status": "candidate",
        "evidence_kind": "assumed_geometry"
      }
    }
  ]
}
